HALOSAT                 
1 43549U 98067NX  20151.09804637  .00016147  00000-0  12219-3 0  9998
2 43549  51.6363  24.6968 0003282  46.5826 313.5445 15.72581445106927
ENDUROSAT ONE           
1 43551U 98067NZ  20151.09545939  .00042519  00000-0  22764-3 0  9996
2 43551  51.6354  14.0625 0002448  60.8121 299.3125 15.79874227107470
EQUISAT                 
1 43552U 98067PA  20151.26087342  .00023126  00000-0  16658-3 0  9993
2 43552  51.6368  22.0708 0003924  45.8799 314.2522 15.73459109107347
AEROCUBE 12A            
1 43556U 18046C   20151.40664272  .00000624  00000-0  33695-4 0  9994
2 43556  51.6409 192.2693 0007878 229.2323 130.7974 15.29757975104615
AEROCUBE 12B            
1 43557U 18046D   20151.20279339  .00000928  00000-0  44427-4 0  9991
2 43557  51.6410 193.8973 0007957 228.1093 131.9209 15.29478978104523
UITMSAT-1               
1 43589U 98067PD  20151.06205267  .00031751  00000-0  20335-3 0  9999
2 43589  51.6358  21.3093 0003671  68.6739 291.4652 15.75992027103070
MAYA-1                  
1 43590U 98067PE  20150.92800282  .00029276  00000-0  18792-3 0  9996
2 43590  51.6326  21.9178 0003484  64.7776 295.3585 15.75987092102980
BHUTAN-1                
1 43591U 98067PF  20151.66312265  .00038370  00000-0  24268-3 0  9998
2 43591  51.6375  17.8956 0003636  71.3264 288.8130 15.76181572103106
SIRIUSSAT-1             
1 43595U 98067PG  20151.37129822  .00025567  00000-0  18152-3 0  9994
2 43595  51.6339  24.1625 0001433  50.9400 309.1726 15.73737251102174
SIRIUSSAT-2             
1 43596U 98067PH  20151.13840361  .00026082  00000-0  18602-3 0  9990
2 43596  51.6367  26.1430 0001660  49.4833  87.3038 15.73618002102125
TANUSHA-3               
1 43597U 98067PJ  20151.07219079  .00059259  00000-0  26725-3 0  9997
2 43597  51.6302  14.4908 0001050 134.3023 225.8066 15.83441652102275
SURFSAT                 
1 43614U 18070B   20151.46111040  .00002230  00000-0  57510-4 0  9999
2 43614  93.0198 147.1523 0017591  53.8388 306.4490 15.39105597 95714
CP7 (DAVE)              
1 43615U 18070C   20151.42583937  .00002140  00000-0  55466-4 0  9992
2 43615  93.0201 147.1291 0017734  53.4431 306.8452 15.38964651 95700
ELFIN-B                 
1 43616U 18070D   20151.41693747  .00003308  00000-0  82004-4 0  9998
2 43616  93.0163 147.0622 0018251  54.9496 305.3468 15.40275160 95745
ELFIN-A                 
1 43617U 18070E   20151.45236265  .00003526  00000-0  86935-4 0  9990
2 43617  93.0214 147.5738 0017528  52.3797 307.9046 15.40448553 95757
CUBEBEL-1 (BSUSAT-1)    
1 43666U 18083E   20151.90895000  .00000737  00000-0  39251-4 0  9996
2 43666  97.4894 178.5474 0016469  64.4645  55.8320 15.18228115 87955
DEBRISSAT-2             
1 43680U 98067PR  20151.01848568  .04060253  12131-4  79716-3 0  9995
2 43680  51.6183   0.4132 0014050 274.3295  85.6122 16.30513689111154
CICERO 10               
1 43690U 18088A   20151.39141109  .00000753  00000-0  32794-4 0  9998
2 43690  85.0382  90.2223 0015848  24.8875 335.3126 15.20209138 86017
IRVINE01                
1 43693U 18088D   20151.55299542  .00002344  00000-0  98177-4 0  9999
2 43693  85.0354  88.8608 0018219   5.5370 354.6070 15.22805294 86121
PROXIMA I               
1 43694U 18088E   20151.53574028  .00000937  00000-0  39156-4 0  9991
2 43694  85.0326  88.7040 0019042 356.8278   3.2839 15.21946379 86112
PROXIMA II              
1 43696U 18088G   20151.40248990  .00000884  00000-0  36843-4 0  9996
2 43696  85.0327  88.7954 0019111 357.2294   2.8839 15.21948156 86096
FACSAT-1                
1 43721U 18096C   20151.32376689  .00001172  00000-0  46633-4 0  9991
2 43721  97.4210 224.9955 0017575 181.3787 178.7407 15.27175805 83622
CENTAURI-2              
1 43722U 18096D   20151.29020855  .00001569  00000-0  60517-4 0  9996
2 43722  97.4220 225.2201 0017608 181.2175 178.9024 15.27689571 83626
INNOSAT-2               
1 43738U 18096V   20151.28178204  .00002224  00000-0  78103-4 0  9993
2 43738  97.4235 227.1056 0023266 189.7094 170.3701 15.30242029 83757
SIRION PATHFINDER-2     
1 43759U 18099B   20151.71085551 -.00000278  00000-0 -19972-4 0  9997
2 43759  97.7058 223.6727 0012946 239.5930 120.4012 14.95271778 81288
CORVUS-BC 4             
1 43767U 18099K   20151.44464404 -.00000234  00000-0 -16341-4 0  9993
2 43767  97.7040 222.8415 0010419 244.3142 115.7003 14.94717605 81218
MOVE-II                 
1 43780U 18099Y   20151.25704250  .00000179  00000-0  21395-4 0  9994
2 43780  97.7063 223.1520 0012125 253.1437 106.8454 14.95383133 81194
SPACEBEE-7              
1 43816U 18099BL  20151.46756003  .00000423  00000-0  43145-4 0  9999
2 43816  97.7075 223.7396 0012252 234.7224 125.2852 14.95678323 80806
SPACEBEE-5              
1 43817U 18099BM  20151.29447279  .00001143  00000-0  10618-3 0  9991
2 43817  97.7132 223.9863 0011719 234.0946 125.9188 14.96277153 80797
SPACEBEE-6              
1 43818U 18099BN  20151.43327263  .00000406  00000-0  41460-4 0  9999
2 43818  97.7096 223.8361 0011952 234.5665 125.4440 14.95869317 80953
SHIELDS 1               
1 43850U 18104B   20151.37766068  .00000042  00000-0  00000-0 0  9992
2 43850  85.0298 187.3019 0016663 130.3144 229.9554 15.21370712 80723
STF-1                   
1 43852U 18104D   20151.19202988  .00000042  00000-0  00000+0 0  9999
2 43852  85.0342 187.9527 0015697 143.0164 217.2154 15.21246994 80678
ZACUBE-2                
1 43907U 18111AH  20151.59991968  .00000377  00000-0  18069-4 0  9995
2 43907  97.2673  51.9006 0020725 202.5703 157.4625 15.24574565 79296
LUME 1                  
1 43908U 18111AJ  20151.66048156  .00000816  00000-0  35341-4 0  9996
2 43908  97.2673  52.1180 0020469 201.8726 158.1640 15.25008483 79315
AOBA VELOX-IV           
1 43940U 19003J   20151.66201896  .00001519  00000-0  63402-4 0  9995
2 43940  97.2291 203.5505 0022034 287.5582  72.3249 15.24955640 75932
CATSAT-2                
1 44029U 98067PV  20151.24313708  .00013627  00000-0  14309-3 0  9995
2 44029  51.6392  48.3155 0004152  33.9490 326.1770 15.64675787 75670
DELPHINI                
1 44030U 98067PW  20151.14407854  .00015045  00000-0  15164-3 0  9998
2 44030  51.6354  47.5490 0003818  35.8742 324.2509 15.65617455 75647
UNITE                   
1 44031U 98067PX  20151.06514432  .00007559  00000-0  94275-4 0  9993
2 44031  51.6382  54.5891 0003150  27.1152 333.0005 15.61002137 75549
CATSAT-1                
1 44033U 98067PZ  20151.75403866  .00018824  00000-0  19529-3 0  9994
2 44033  51.6394  45.7339 0004055  34.1899 325.9356 15.64690393 75666
RAAVANA-1               
1 44329U 98067QE  20151.16614199  .00007791  00000-0  11016-3 0  9994
2 44329  51.6395  65.8138 0004830 301.1500  58.9018 15.57572680 54151
UGUISU                  
1 44330U 98067QF  20151.04934605  .00007649  00000-0  10858-3 0  9995
2 44330  51.6393  66.5298 0004843 298.5333  61.5171 15.57495277 54115
NEPALISAT-1             
1 44331U 98067QG  20151.15885683  .00007629  00000-0  10790-3 0  9992
2 44331  51.6390  65.7640 0004916 302.7169  57.3349 15.57599447 54148
SPOOQY-1                
1 44332U 98067QH  20151.35371898  .00007449  00000-0  10585-3 0  9995
2 44332  51.6390  64.8123 0003906 308.5428  51.5214 15.57512716 54135
SPACEBEE-9              
1 44370U 19037F   20151.54460470  .00005470  00000-0  12816-3 0  9994
2 44370  45.0138 215.8573 0011365  74.2635 285.9508 15.43213906 51833
SPACEBEE-8              
1 44371U 19037G   20151.53519100  .00010754  00000-0  21353-3 0  9996
2 44371  45.0178 210.7369 0009010  72.7774 287.4107 15.47187627 51887
IOD-1 GEMS              
1 44385U 98067QK  20151.36736159  .00012532  00000-0  16005-3 0  9991
2 44385  51.6407  63.4518 0001147 239.6852 120.4028 15.59665074 51667
MOVE-IIB                
1 44398U 19038N   20151.68759210  .00000847  00000-0  52441-4 0  9995
2 44398  97.5349 113.1469 0024856 184.9555 175.1433 15.12287668 49894
SONATE                  
1 44400U 19038Q   20151.71782418  .00000391  00000-0  26461-4 0  9996
2 44400  97.5386 113.1936 0025026 183.4036 176.7029 15.11939461 49898
LUCKY-7                 
1 44406U 19038W   20151.14105827  .00000351  00000-0  24021-4 0  9998
2 44406  97.5379 112.7219 0024398 185.0760 175.0227 15.12200289 49801
BEESAT 9                
1 44412U 19038AC  20151.33911113  .00000511  00000-0  33205-4 0  9991
2 44412  97.5371 112.8984 0022306 189.8623 170.2173 15.12272849 49535
JAISAT-1                
1 44419U 19038F   20151.43133173  .00000603  00000-0  37998-4 0  9996
2 44419  97.5373 113.2403 0021191 188.4614 171.6262 15.12756011 49870
SWIATOWID               
1 44426U 98067QL  20151.86071022  .00014071  00000-0  17361-3 0  9999
2 44426  51.6417  60.4877 0001266 226.8229 247.5490 15.60460185 51760
KRAKSAT                 
1 44427U 98067QM  20151.80523530  .00005375  00000-0  83456-4 0  9996
2 44427  51.6440  65.5296 0002156 241.6591 158.2628 15.55732087 51739
VCC A                   
1 44428U 98067QN  20151.02306624  .00007230  00000-0  10505-3 0  9990
2 44428  51.6410  67.8987 0001406 270.3610  89.7220 15.56954878 51637
ENTRYSAT                
1 44429U 98067QP  20151.32465218  .00008782  00000-0  12193-3 0  9997
2 44429  51.6395  65.3896 0001113 253.9776 106.1093 15.57878760 51691
VCC C                   
1 44430U 98067QQ  20151.11847738  .00010146  00000-0  13421-3 0  9999
2 44430  51.6394  65.5224 0000854 284.8479  75.2419 15.58979027 50509
VCC B                   
1 44431U 98067QR  20150.95903675  .00007091  00000-0  10304-3 0  9996
2 44431  51.6404  68.2086 0001548 268.6776  91.4039 15.56989491 51568
ATL-1                   
1 44830U 19084G   20151.31679508  .00044278  00000-0  27035-3 0  9994
2 44830  96.9773  20.3195 0024885 307.8122  52.0892 15.76822262 27592
SMOG-P                  
1 44832U 19084J   20151.32771451  .00047613  00000-0  27716-3 0  9999
2 44832  96.9776  20.4668 0023488 305.9361  53.9727 15.77932465 27602
